STARLINK-32335          
1 61703U 24195S   26089.16668981  .00910504  00000+0  73492-2 0  9993
2 61703  53.1441  51.4116 0011889 104.1703 103.3180 15.67933780  5840
