{
  "norad_id": 61703,
  "name": "STARLINK-32335",
  "history": [
    {
      "epoch": "2026-03-30T04:00:01.999584Z",
      "apogee_km": 372.8317791776153,
      "perigee_km": 356.79704072475124,
      "latitude_deg": -21.966331920631124,
      "longitude_deg": 1.3381467918693812,
      "height_km": 372.8859750410932,
      "semi_major_axis_km": 6742.9514099511825,
      "eccentricity": 0.001189,
      "inclination_deg": 53.1441,
      "raan_deg": 51.4116,
      "arg_perigee_deg": 104.1703,
      "mean_anomaly_deg": 103.318,
      "mean_motion_rev_day": 15.6793378
    }
  ]
}